STARLINK-2705           
1 48672U 21044AL  26068.33834318 -.00004992  00000+0 -15241-3 0  9994
2 48672  53.1598 105.8091 0001581  77.9359 282.1819 15.31035302263903
TEVEL2-1                
1 63217U 25052H   26068.64782323  .00020683  00000+0  70600-3 0  9994
2 63217  97.3991 324.7682 0004767 104.8919 255.2849 15.30341923 54855
